OBJECT_NAME,OBJECT_ID,EPOCH,MEAN_MOTION,ECCENTRICITY,INCLINATION,RA_OF_ASC_NODE,ARG_OF_PERICENTER,MEAN_ANOMALY,EPHEMERIS_TYPE,CLASSIFICATION_TYPE,NORAD_CAT_ID,ELEMENT_SET_NO,REV_AT_EPOCH,BSTAR,MEAN_MOTION_DOT,MEAN_MOTION_DDOT
STARLINK-30854,2023-171Q,2026-06-29T21:28:59.731392,15.27568185,.00015892,43.0028,11.6597,275.9628,84.1042,0,U,58244,999,14689,.14711149E-3,.3787E-4,0
STARLINK-30849,2023-171R,2026-06-30T12:59:28.043520,15.27574671,.00015712,43.0022,7.9073,267.1204,92.9468,0,U,58245,999,14699,.16392545E-3,.4251E-4,0
STARLINK-30886,2023-171S,2026-06-29T21:06:47.284416,15.27580297,.00011255,43.0045,11.5436,270.7236,89.3487,0,U,58246,999,14689,.40063749E-4,.841E-5,0
STARLINK-30850,2023-171T,2026-06-30T14:28:03.187488,15.27588929,.00013661,43.0039,7.5126,285.4901,74.5800,0,U,58247,999,14700,.68815489E-4,.1632E-4,0
STARLINK-30823,2023-171U,2026-06-29T22:53:53.256768,15.27599974,.00017152,43.0057,11.2395,276.4050,83.6607,0,U,58248,999,14690,-.17253792E-3,-.501E-4,0
STARLINK-30873,2023-171V,2026-06-29T22:48:20.545056,15.27584342,.00016007,43.0023,11.2091,273.8926,86.1742,0,U,58249,999,14690,.12801886E-4,.9E-6,0
STARLINK-30808,2023-171W,2026-06-29T22:48:08.869824,15.29424184,.00024836,43.0014,11.1891,258.8192,101.2382,0,U,58250,999,14690,.2175257E-2,.63624E-3,0
STARLINK-30881,2023-171X,2026-06-29T22:59:30.240960,15.27501429,.00015894,43.0098,11.1859,325.8381,34.2368,0,U,58251,999,14690,-.10711331E-3,-.3201E-4,0
STARLINK-30883,2023-171Y,2026-06-30T14:13:14.871072,15.27584401,.00016053,43.0053,7.4292,263.9292,96.1377,0,U,58252,999,14700,.60937978E-4,.1415E-4,0
ZHONGXING-6E,2023-172A,2026-06-30T16:43:38.877600,1.00273044,.0002611,0.0274,271.4043,185.9957,187.7971,0,U,58253,999,979,0,-.351E-5,0
ORBASTRO-PC-1,2023-174C,2026-06-30T13:38:48.807744,15.49374715,.00073747,97.3781,267.9022,122.3412,237.8554,0,U,58258,999,14754,.43271129E-3,.2369E-3,0
LEMUR-2-BASS,2023-174D,2026-06-30T04:16:19.631136,15.43520888,.00081253,97.3854,266.0746,123.0721,237.1308,0,U,58259,999,14736,.3573184E-3,.15967E-3,0
PLATERO,2023-174G,2026-06-30T05:23:56.054976,15.64057992,.00043851,97.3944,279.8762,70.5526,289.6207,0,U,58262,999,14822,.32096442E-3,.30279E-3,0
BRO-11,2023-174J,2026-06-30T13:06:28.939392,15.27477508,.00111647,97.3906,258.2680,153.2573,206.9244,0,U,58264,999,14679,.1876802E-3,.498E-4,0
FLOCK 4Q-16,2023-174R,2026-06-30T05:06:27.997920,15.49840486,.00070403,97.3845,269.6266,119.9017,240.2934,0,U,58271,999,14759,.29962288E-3,.16629E-3,0
FLOCK 4Q-11,2023-174T,2026-06-30T04:33:53.506368,15.50211075,.00070079,97.3878,270.2214,115.6955,244.5020,0,U,58273,999,14760,.37924278E-3,.21363E-3,0
GENMAT-1,2023-174W,2026-06-30T03:50:01.018464,15.34871902,.00077377,97.3678,258.9714,131.1058,229.0854,0,U,58276,999,14696,.26288505E-3,.8818E-4,0
FLOCK 4Q-28,2023-174AA,2026-06-30T05:38:02.990976,15.55903265,.00060553,97.3893,272.8656,109.1541,251.0369,0,U,58280,999,14777,.45296116E-3,.31385E-3,0
AETHER-1,2023-174AB,2026-06-30T12:39:45.065088,15.93035481,.00063046,97.3761,276.9635,247.9042,112.1564,0,U,58281,999,14807,.11427369E-2,.396701E-2,.62955143E-4
FLOCK 4Q-27,2023-174AC,2026-06-30T11:53:30.726528,15.55896339,.00053609,97.3821,272.5524,110.2606,249.9226,0,U,58282,999,14782,.45174034E-3,.31286E-3,0
PICO-01B009,2023-174AH,2026-06-29T22:23:04.727040,15.86910034,.00029111,97.3761,278.7681,218.4611,141.6454,0,U,58287,999,14818,.81554495E-3,.213107E-2,0
ICEYE-X31,2023-174AJ,2026-06-30T13:40:40.573920,15.34732193,.00012772,97.3783,257.3095,240.7786,119.3330,0,U,58288,999,14680,.50476291E-3,.16932E-3,0
FALCONSAT-10,2023-174AM,2026-06-30T04:44:56.195232,15.27792561,.00096224,97.3804,257.1149,135.2107,224.9911,0,U,58291,999,14675,.17286075E-3,.4623E-4,0
ICEYE-X34,2023-174AQ,2026-06-30T05:01:54.851232,15.67128340,.00030087,97.3881,273.0533,165.2986,194.8363,0,U,58294,999,14778,.71338568E-3,.76606E-3,0
SPACEVAN-001,2023-174AR,2026-06-30T13:23:39.319008,15.58497900,.00080113,97.4011,279.1375,36.7359,323.4445,0,U,58295,999,14822,.2039277E-3,.15483E-3,0
PELICAN-1,2023-174AS,2026-06-29T06:33:20.598048,15.72530616,.00026426,97.4012,281.3807,182.3116,177.8136,0,U,58296,999,14806,.70505557E-4,.927E-4,0
UMBRA-07,2023-174AT,2026-06-30T13:32:59.624736,15.09375330,.00036576,97.3789,236.8213,56.7706,303.3874,0,U,58297,999,14543,.65069469E-3,.10341E-3,0
SPIP,2023-174AU,2026-06-30T13:54:51.834240,15.27766217,.0010662,97.3846,257.9625,133.4398,226.7730,0,U,58298,999,14682,.17376135E-3,.4645E-4,0
AETHER-2,2023-174AV,2026-06-30T05:44:58.259616,15.34706661,.00086552,97.3906,264.5279,102.6187,257.6025,0,U,58299,999,14723,.1778832E-3,.5909E-4,0
ION SCV-013,2023-174AW,2026-06-30T14:13:42.670272,15.05152533,.00994259,97.6140,236.4960,149.8025,210.8984,0,U,58300,999,14355,.13224846E-3,.2035E-4,0
