STARLINK-30854          
1 58244U 23171Q   26180.89513578  .00003787  00000+0  14711-3 0  9991
2 58244  43.0028  11.6597 0001589 275.9628  84.1042 15.27568185146898
STARLINK-30849          
1 58245U 23171R   26181.54129680  .00004251  00000+0  16393-3 0  9997
2 58245  43.0022   7.9073 0001571 267.1204  92.9468 15.27574671146991
STARLINK-30886          
1 58246U 23171S   26180.87971394  .00000841  00000+0  40064-4 0  9994
2 58246  43.0045  11.5436 0001125 270.7236  89.3487 15.27580297146892
STARLINK-30850          
1 58247U 23171T   26181.60281467  .00001632  00000+0  68815-4 0  9995
2 58247  43.0039   7.5126 0001366 285.4901  74.5800 15.27588929147005
STARLINK-30823          
1 58248U 23171U   26180.95408862 -.00005010  00000+0 -17254-3 0  9999
2 58248  43.0057  11.2395 0001715 276.4050  83.6607 15.27599974146905
STARLINK-30873          
1 58249U 23171V   26180.95023779  .00000090  00000+0  12802-4 0  9996
2 58249  43.0023  11.2091 0001600 273.8926  86.1742 15.27584342146909
STARLINK-30808          
1 58250U 23171W   26180.95010266  .00063624  00000+0  21753-2 0  9990
2 58250  43.0014  11.1891 0002483 258.8192 101.2382 15.29424184146904
STARLINK-30881          
1 58251U 23171X   26180.95798890 -.00003201  00000+0 -10711-3 0  9997
2 58251  43.0098  11.1859 0001589 325.8381  34.2368 15.27501429146907
STARLINK-30883          
1 58252U 23171Y   26181.59253323  .00001415  00000+0  60938-4 0  9996
2 58252  43.0053   7.4292 0001605 263.9292  96.1377 15.27584401147000
ZHONGXING-6E            
1 58253U 23172A   26181.69697775 -.00000351  00000+0  00000+0 0  9990
2 58253   0.0274 271.4043 0002611 185.9957 187.7971  1.00273044  9799
ORBASTRO-PC-1           
1 58258U 23174C   26181.56862046  .00023690  00000+0  43271-3 0  9999
2 58258  97.3781 267.9022 0007374 122.3412 237.8554 15.49374715147540
LEMUR-2-BASS            
1 58259U 23174D   26181.17800499  .00015967  00000+0  35732-3 0  9992
2 58259  97.3854 266.0746 0008125 123.0721 237.1308 15.43520888147369
PLATERO                 
1 58262U 23174G   26181.22495434  .00030279  00000+0  32096-3 0  9994
2 58262  97.3944 279.8762 0004385  70.5526 289.6207 15.64057992148226
BRO-11                  
1 58264U 23174J   26181.54616828  .00004980  00000+0  18768-3 0  9993
2 58264  97.3906 258.2680 0011164 153.2573 206.9244 15.27477508146791
FLOCK 4Q-16             
1 58271U 23174R   26181.21282405  .00016629  00000+0  29962-3 0  9996
2 58271  97.3845 269.6266 0007040 119.9017 240.2934 15.49840486147596
FLOCK 4Q-11             
1 58273U 23174T   26181.19020262  .00021363  00000+0  37924-3 0  9994
2 58273  97.3878 270.2214 0007007 115.6955 244.5020 15.50211075147605
GENMAT-1                
1 58276U 23174W   26181.15973401  .00008818  00000+0  26289-3 0  9997
2 58276  97.3678 258.9714 0007737 131.1058 229.0854 15.34871902146965
FLOCK 4Q-28             
1 58280U 23174AA  26181.23475684  .00031385  00000+0  45296-3 0  9995
2 58280  97.3893 272.8656 0006055 109.1541 251.0369 15.55903265147770
AETHER-1                
1 58281U 23174AB  26181.52760492  .00396701  62955-4  11427-2 0  9998
2 58281  97.3761 276.9635 0006304 247.9042 112.1564 15.93035481148077
FLOCK 4Q-27             
1 58282U 23174AC  26181.49549452  .00031286  00000+0  45174-3 0  9995
2 58282  97.3821 272.5524 0005360 110.2606 249.9226 15.55896339147824
PICO-01B009             
1 58287U 23174AH  26180.93269360  .00213107  00000+0  81554-3 0  9991
2 58287  97.3761 278.7681 0002911 218.4611 141.6454 15.86910034148184
ICEYE-X31               
1 58288U 23174AJ  26181.56991405  .00016932  00000+0  50476-3 0  9990
2 58288  97.3783 257.3095 0001277 240.7786 119.3330 15.34732193146809
FALCONSAT-10            
1 58291U 23174AM  26181.19787263  .00004623  00000+0  17286-3 0  9994
2 58291  97.3804 257.1149 0009622 135.2107 224.9911 15.27792561146751
ICEYE-X34               
1 58294U 23174AQ  26181.20966263  .00076606  00000+0  71339-3 0  9997
2 58294  97.3881 273.0533 0003008 165.2986 194.8363 15.67128340147785
SPACEVAN-001            
1 58295U 23174AR  26181.55809397  .00015483  00000+0  20393-3 0  9990
2 58295  97.4011 279.1375 0008011  36.7359 323.4445 15.58497900148220
PELICAN-1               
1 58296U 23174AS  26180.27315507  .00009270  00000+0  70506-4 0  9993
2 58296  97.4012 281.3807 0002642 182.3116 177.8136 15.72530616148068
UMBRA-07                
1 58297U 23174AT  26181.56457899  .00010341  00000+0  65069-3 0  9996
2 58297  97.3789 236.8213 0003657  56.7706 303.3874 15.09375330145434
SPIP                    
1 58298U 23174AU  26181.57976660  .00004645  00000+0  17376-3 0  9998
2 58298  97.3846 257.9625 0010662 133.4398 226.7730 15.27766217146825
AETHER-2                
1 58299U 23174AV  26181.23956319  .00005909  00000+0  17788-3 0  9992
2 58299  97.3906 264.5279 0008655 102.6187 257.6025 15.34706661147236
ION SCV-013             
1 58300U 23174AW  26181.59285498  .00002035  00000+0  13225-3 0  9996
2 58300  97.6140 236.4960 0099425 149.8025 210.8984 15.05152533143553
